NORAD_CAT_ID,OBJECT_NAME,OBJECT_TYPE,EPOCH,MEAN_MOTION,ECCENTRICITY,INCLINATION,RA_OF_ASC_NODE,ARG_OF_PERICENTER,MEAN_ANOMALY,BSTAR,MEAN_MOTION_DOT,MEAN_MOTION_DDOT,TLE_LINE0,TLE_LINE1,TLE_LINE2,SEMIMAJOR_AXIS,PERIOD,APOGEE,PERIGEE,DECAYED
50831.0,STARLINK-3299,PAYLOAD,2023-10-31 17:36:27,15.08811196,0.0001008,53.2178,69.6794,87.2631,272.8476,-0.0002254,-3.87e-05,0.0,0 STARLINK-3299,1 50831U 22001AE  23304.73365170 -.00003870  00000-0 -22540-3 0  9992,2 50831  53.2178  69.6794 0001008  87.2631 272.8476 15.08811196101853,6917.968,95.439,540.531,539.136,0.0
50831.0,STARLINK-3299,PAYLOAD,2023-11-01 12:41:06,15.08833283,9.65e-05,53.2173,66.112,89.101,271.0093,0.0012768,0.00020087,0.0,0 STARLINK-3299,1 50831U 22001AE  23305.52854364  .00020087  00000-0  12768-2 0  9995,2 50831  53.2173  66.1120 0000965  89.1010 271.0093 15.08833283101976,6917.901,95.438,540.433,539.098,0.0
50831.0,STARLINK-3299,PAYLOAD,2023-11-01 14:16:29,15.08830589,8.62e-05,53.2167,65.8145,89.3505,270.7585,0.0010129,0.00015865,0.0,0 STARLINK-3299,1 50831U 22001AE  23305.59478407  .00015865  00000-0  10129-2 0  9999,2 50831  53.2167  65.8145 0000862  89.3505 270.7585 15.08830589100718,6917.909,95.438,540.37,539.178,0.0
50831.0,STARLINK-3299,PAYLOAD,2023-11-01 15:51:52,15.08835842,9.86e-05,53.2174,65.5168,89.6452,270.4653,0.0012224,0.00019218,0.0,0 STARLINK-3299,1 50831U 22001AE  23305.66102400  .00019218  00000-0  12224-2 0  9998,2 50831  53.2174  65.5168 0000986  89.6452 270.4653 15.08835842100720,6917.893,95.438,540.44,539.076,0.0
50831.0,STARLINK-3299,PAYLOAD,2023-11-02 14:07:15,15.08880387,0.0001054,53.2177,61.3548,81.1603,278.9509,0.0013928,0.00021972,0.0,0 STARLINK-3299,1 50831U 22001AE  23306.58837073  .00021972  00000-0  13928-2 0  9993,2 50831  53.2177  61.3548 0001054  81.1603 278.9509 15.08880387100863,6917.757,95.435,540.351,538.893,0.0
50831.0,STARLINK-3299,PAYLOAD,2023-11-03 01:14:56,15.08873137,0.0001283,53.218,59.2735,82.2326,277.8812,0.0010112,0.00015856,0.0,0 STARLINK-3299,1 50831U 22001AE  23307.05204553  .00015856  00000-0  10112-2 0  9993,2 50831  53.2180  59.2735 0001283  82.2326 277.8812 15.08873137102209,6917.779,95.435,540.532,538.757,0.0
50831.0,STARLINK-3299,PAYLOAD,2023-11-03 10:47:15,15.0884711,0.0001159,53.2179,57.4894,99.8115,260.3008,0.00075898,0.00011814,0.0,0 STARLINK-3299,1 50831U 22001AE  23307.44948558  .00011814  00000-0  75898-3 0  9999,2 50831  53.2179  57.4894 0001159  99.8115 260.3008 15.08847110102267,6917.859,95.437,540.525,538.922,0.0
50831.0,STARLINK-3299,PAYLOAD,2023-11-03 13:58:01,15.08848778,0.0001174,53.2181,56.8946,101.5808,258.5316,0.0013262,0.00020886,0.0,0 STARLINK-3299,1 50831U 22001AE  23307.58196518  .00020886  00000-0  13262-2 0  9990,2 50831  53.2181  56.8946 0001174 101.5808 258.5316 15.08848778101012,6917.854,95.437,540.531,538.906,0.0
50831.0,STARLINK-3299,PAYLOAD,2023-11-03 17:08:47,15.08852733,0.000135,53.2193,56.2983,104.0082,256.106,0.0012475,0.00019629,0.0,0 STARLINK-3299,1 50831U 22001AE  23307.71444409  .00019629  00000-0  12475-2 0  9998,2 50831  53.2193  56.2983 0001350 104.0082 256.1060 15.08852733101036,6917.841,95.437,540.64,538.773,0.0
50831.0,STARLINK-3299,PAYLOAD,2023-11-04 10:38:02,15.08849395,0.0001141,53.2182,53.0266,96.1623,263.9499,0.00099872,0.00015646,0.0,0 STARLINK-3299,1 50831U 22001AE  23308.44308686  .00015646  00000-0  99872-3 0  9997,2 50831  53.2182  53.0266 0001141  96.1623 263.9499 15.08849395102418,6917.852,95.437,540.506,538.927,0.0
50831.0,STARLINK-3299,PAYLOAD,2023-11-04 13:48:48,15.08856627,0.0001316,53.2183,52.432,88.9645,271.1498,0.00097949,0.00015342,0.0,0 STARLINK-3299,1 50831U 22001AE  23308.57556603  .00015342  00000-0  97949-3 0  9991,2 50831  53.2183  52.4320 0001316  88.9645 271.1498 15.08856627101167,6917.83,95.437,540.605,538.784,0.0
50831.0,STARLINK-3299,PAYLOAD,2023-11-05 12:04:12,15.0885585,0.0001521,53.2189,48.2716,88.8321,271.2846,0.00063151,9.781e-05,0.0,0 STARLINK-3299,1 50831U 22001AE  23309.50292389  .00009781  00000-0  63151-3 0  9991,2 50831  53.2189  48.2716 0001521  88.8321 271.2846 15.08855850102574,6917.832,95.437,540.749,538.645,0.0
50831.0,STARLINK-3299,PAYLOAD,2023-11-05 13:39:35,15.08868007,0.0001317,53.2181,47.9738,91.4969,268.6174,0.001009,0.00015819,0.0,0 STARLINK-3299,1 50831U 22001AE  23309.56916057  .00015819  00000-0  10090-2 0  9994,2 50831  53.2181  47.9738 0001317  91.4969 268.6174 15.08868007101310,6917.795,95.436,540.571,538.749,0.0
50831.0,STARLINK-3299,PAYLOAD,2023-11-06 11:54:59,15.08811296,0.0002538,53.2185,43.8101,36.8807,323.2359,-0.0014894,-0.00023897,0.0,0 STARLINK-3299,1 50831U 22001AE  23310.49652295 -.00023897  00000-0 -14894-2 0  9992,2 50831  53.2185  43.8101 0002538  36.8807 323.2359 15.08811296102720,6917.968,95.439,541.589,538.077,0.0
50831.0,STARLINK-3299,PAYLOAD,2023-11-06 13:30:22,15.08815682,0.0001588,53.2188,43.5106,79.7769,280.3402,-0.00090376,-0.00014633,0.0,0 STARLINK-3299,1 50831U 22001AE  23310.56276303 -.00014633  00000-0 -90376-3 0  9990,2 50831  53.2188  43.5106 0001588  79.7769 280.3402 15.08815682101467,6917.955,95.439,540.918,538.721,0.0
50831.0,STARLINK-3299,PAYLOAD,2023-11-07 11:45:49,15.08796801,0.0001607,53.2184,39.3526,91.5336,268.584,-8.3451e-05,-1.614e-05,0.0,0 STARLINK-3299,1 50831U 22001AE  23311.49015674 -.00001614  00000-0 -83451-4 0  9997,2 50831  53.2184  39.3526 0001607  91.5336 268.5840 15.08796801102877,6918.012,95.44,540.989,538.766,0.0
50831.0,STARLINK-3299,PAYLOAD,2023-11-07 13:21:12,15.08796751,0.0001878,53.2198,39.0528,81.6696,278.4509,8.2821e-05,1.029e-05,0.0,0 STARLINK-3299,1 50831U 22001AE  23311.55639981  .00001029  00000-0  82821-4 0  9995,2 50831  53.2198  39.0528 0001878  81.6696 278.4509 15.08796751101617,6918.013,95.44,541.177,538.578,0.0
50831.0,STARLINK-3299,PAYLOAD,2023-11-08 11:36:36,15.08855714,0.0001533,53.2178,34.8901,75.8794,284.2369,0.0014006,0.00022082,0.0,0 STARLINK-3299,1 50831U 22001AE  23312.48375925  .00022082  00000-0  14006-2 0  9993,2 50831  53.2178  34.8901 0001533  75.8794 284.2369 15.08855714103026,6917.832,95.437,540.758,538.637,0.0
50831.0,STARLINK-3299,PAYLOAD,2023-11-08 13:11:59,15.08858905,0.0001621,53.2173,34.5945,70.4524,289.6643,0.0013818,0.00021783,0.0,0 STARLINK-3299,1 50831U 22001AE  23312.54999726  .00021783  00000-0  13818-2 0  9998,2 50831  53.2173  34.5945 0001621  70.4524 289.6643 15.08858905101764,6917.823,95.436,540.809,538.566,0.0
50831.0,STARLINK-3299,PAYLOAD,2023-11-09 11:27:22,15.08864287,0.0001716,53.2185,30.4286,89.5402,270.5787,-5.8055e-05,-1.213e-05,0.0,0 STARLINK-3299,1 50831U 22001AE  23313.47734246 -.00001213  00000-0 -58055-4 0  9997,2 50831  53.2185  30.4286 0001716  89.5402 270.5787 15.08864287103176,6917.806,95.436,540.858,538.484,0.0
50831.0,STARLINK-3299,PAYLOAD,2023-11-09 13:02:45,15.0886775,0.0001548,53.2181,30.1355,83.0017,277.1151,0.00026621,3.954e-05,0.0,0 STARLINK-3299,1 50831U 22001AE  23313.54358232  .00003954  00000-0  26621-3 0  9997,2 50831  53.2181  30.1355 0001548  83.0017 277.1151 15.08867750101916,6917.796,95.436,540.731,538.59,0.0
50831.0,STARLINK-3299,PAYLOAD,2023-11-09 22:35:03,15.088613,0.0001363,53.2196,28.3495,87.1003,273.0145,-4.0552e-05,-9.34e-06,0.0,0 STARLINK-3299,1 50831U 22001AE  23313.94101713 -.00000934  00000-0 -40552-4 0  9998,2 50831  53.2196  28.3495 0001363  87.1003 273.0145 15.08861300101970,6917.815,95.436,540.623,538.737,0.0
50831.0,STARLINK-3299,PAYLOAD,2023-11-10 11:18:09,15.08847805,0.0001478,53.2187,25.968,105.6018,254.5138,-0.0001066,-1.984e-05,0.0,0 STARLINK-3299,1 50831U 22001AE  23314.47093850 -.00001984  00000-0 -10660-3 0  9991,2 50831  53.2187  25.9680 0001478 105.6018 254.5138 15.08847805103329,6917.857,95.437,540.744,538.699,0.0
50831.0,STARLINK-3299,PAYLOAD,2023-11-11 11:08:56,15.08849206,0.0001425,53.2182,21.5106,99.2469,260.8685,-1.6937e-05,-5.58e-06,0.0,0 STARLINK-3299,1 50831U 22001AE  23315.46453775 -.00000558  00000-0 -16937-4 0  9997,2 50831  53.2182  21.5106 0001425  99.2469 260.8685 15.08849206102209,6917.852,95.437,540.703,538.731,0.0
50831.0,STARLINK-3299,PAYLOAD,2023-11-12 10:59:43,15.08845391,0.0001484,53.2177,17.0495,98.1727,261.9433,9.3444e-05,1.2e-05,0.0,0 STARLINK-3299,1 50831U 22001AE  23316.45813890  .00001200  00000-0  93444-4 0  9996,2 50831  53.2177  17.0495 0001484  98.1727 261.9433 15.08845391103625,6917.864,95.437,540.756,538.702,0.0
50831.0,STARLINK-3299,PAYLOAD,2023-11-13 10:50:30,15.08842317,0.0001495,53.2192,12.5906,95.5483,264.568,0.0002621,3.886e-05,0.0,0 STARLINK-3299,1 50831U 22001AE  23317.45173741  .00003886  00000-0  26210-3 0  9999,2 50831  53.2192  12.5906 0001495  95.5483 264.5680 15.08842317102505,6917.873,95.437,540.773,538.704,0.0
50831.0,STARLINK-3299,PAYLOAD,2023-11-13 20:22:48,15.08843036,0.0001458,53.2178,10.8065,91.1702,268.9457,5.3079e-06,-2.03e-06,0.0,0 STARLINK-3299,1 50831U 22001AE  23317.84917646 -.00000203  00000-0  53079-5 0  9998,2 50831  53.2178  10.8065 0001458  91.1702 268.9457 15.08843036102566,6917.871,95.437,540.745,538.727,0.0
50831.0,STARLINK-3299,PAYLOAD,2023-11-14 04:19:45,15.0883747,0.0001457,53.2188,9.3196,98.9079,261.2078,5.6092e-05,6.05e-06,0.0,0 STARLINK-3299,1 50831U 22001AE  23318.18038227  .00000605  00000-0  56092-4 0  9997,2 50831  53.2188   9.3196 0001457  98.9079 261.2078 15.08837470103882,6917.888,95.438,540.761,538.745,0.0
50831.0,STARLINK-3299,PAYLOAD,2023-11-14 10:41:17,15.08842212,0.0001499,53.2197,8.1305,100.6247,259.4914,7.7505e-05,9.46e-06,0.0,0 STARLINK-3299,1 50831U 22001AE  23318.44533788  .00000946  00000-0  77505-4 0  9998,2 50831  53.2197   8.1305 0001499 100.6247 259.4914 15.08842212102657,6917.874,95.437,540.776,538.702,0.0
50831.0,STARLINK-3299,PAYLOAD,2023-11-14 20:13:36,15.0883952,0.000157,53.2198,6.3466,98.3181,261.7989,4.5172e-05,4.31e-06,0.0,0 STARLINK-3299,1 50831U 22001AE  23318.84278046  .00000431  00000-0  45172-4 0  9999,2 50831  53.2198   6.3466 0001570  98.3181 261.7989 15.08839520102719,6917.882,95.438,540.833,538.661,0.0
